NOAA 15                 
1 25338U 98030A   20358.11187375  .00000033  00000-0  32479-4 0  9997
2 25338  98.7009  22.0470 0011392  75.9160 284.3285 14.26005145176111
DMSP 5D-3 F15 (USA 147) 
1 25991U 99067A   20358.18480622 -.00000088  00000-0 -20988-4 0  9995
2 25991  98.9950 331.2199 0009058 286.6255 136.9788 14.16467519 87160
METEOSAT-8 (MSG-1)      
1 27509U 02040B   20357.30604823  .00000142  00000-0  00000-0 0  9999
2 27509   7.0578  53.2985 0001132 170.5533  19.1339  1.00266561 67179
DMSP 5D-3 F16 (USA 172) 
1 28054U 03048A   20358.20260872 -.00000049  00000-0 -24775-5 0  9994
2 28054  98.9345 336.8157 0008166  52.8314 318.0436 14.13649145886562
NOAA 18                 
1 28654U 05018A   20358.14722917  .00000087  00000-0  71497-4 0  9997
2 28654  99.0202  56.1078 0015005  61.9377 298.3310 14.12566748803641
METEOSAT-9 (MSG-2)      
1 28912U 05049B   20357.43452174  .00000024  00000-0  00000-0 0  9993
2 28912   4.8283  69.3186 0000962 230.3892 311.6007  1.00267329 54957
FORMOSAT-3 FM6          
1 29047U 06011A   20357.46593564 -.00000036  00000-0  22011-5 0  9990
2 29047  71.9792  86.2393 0048181  97.7897 262.8714 14.28770508768170
FORMOSAT-3 FM1          
1 29048U 06011B   20357.41891377  .00000100  00000-0  55646-4 0  9999
2 29048  71.9665 357.0234 0041771  54.1440 306.3564 14.28740289770647
FORMOSAT-3 FM5          
1 29049U 06011C   20357.68974640  .00000126  00000-0  65735-4 0  9992
2 29049  72.0184 169.1895 0033240  80.1136 280.3751 14.28818284766481
FORMOSAT-3 FM3          
1 29050U 06011D   20357.42430483  .00000251  00000-0  62899-4 0  9995
2 29050  72.0161 296.6025 0050485 340.6309  19.2923 14.58993610783743
FORMOSAT-3 FM4          
1 29051U 06011E   20357.61511421  .00000073  00000-0  44298-4 0  9994
2 29051  72.0061  71.0359 0069818 318.2137  41.3679 14.28855228769060
FORMOSAT-3 FM2          
1 29052U 06011F   20357.81126436  .00000119  00000-0  62790-4 0  9993
2 29052  72.0331 145.4016 0039133  37.1642 323.2192 14.28960574767423
EWS-G1 (GOES 13)        
1 29155U 06018A   20357.24058668  .00000046  00000-0  00000-0 0  9993
2 29155   0.2999 106.8499 0007527 124.5140   7.8907  1.00272267 23281
METOP-A                 
1 29499U 06044A   20358.15429789  .00000007  00000-0  22478-4 0  9994
2 29499  98.4983  38.2323 0001656  91.7727   3.9998 14.21493032735695
DMSP 5D-3 F17 (USA 191) 
1 29522U 06050A   20358.20221639  .00000026  00000-0  36728-4 0  9992
2 29522  98.7931  11.6830 0009831   6.5854 353.5447 14.14030225729402
FENGYUN 3A              
1 32958U 08026A   20357.95069612  .00000013  00000-0  26073-4 0  9994
2 32958  98.4284 334.1182 0009332 144.5291 215.6508 14.18642994651556
FENGYUN 2E              
1 33463U 08066A   20358.07240100 -.00000196  00000-0  00000+0 0  9997
2 33463   4.7360  67.9001 0003786 321.9526 174.9186  1.00279201 44013
NOAA 19                 
1 33591U 09005A   20358.16518174  .00000039  00000-0  46524-4 0  9993
2 33591  99.1935   8.4100 0013065 266.8393  93.1283 14.12445079612039
GOES 14                 
1 35491U 09033A   20357.52236243 -.00000084  00000-0  00000-0 0  9994
2 35491   0.1487 254.8776 0013003 329.8730 310.5971  1.00272266 42033
METEOR-M 1              
1 35865U 09049A   20357.91846278  .00000033  00000-0  33581-4 0  9991
2 35865  98.4592 337.1289 0002680  28.4083 331.7241 14.22259721584700
DMSP 5D-3 F18 (USA 210) 
1 35951U 09057A   20358.13647121  .00000081  00000-0  65756-4 0  9999
2 35951  98.6627 341.8408 0010809 185.0498 175.0568 14.13320428576653
GOES 15                 
1 36411U 10008A   20357.50506670  .00000064  00000-0  00000-0 0  9990
2 36411   0.3316  99.3483 0001577 334.5267  71.2023  1.00270948 39598
COMS 1                  
1 36744U 10032A   20357.76844587 -.00000334  00000-0  00000+0 0  9996
2 36744   0.0420 139.7499 0000846 123.8706 232.9763  1.00271576 38573
FENGYUN 3B              
1 37214U 10059A   20358.17107934  .00000035  00000-0  41018-4 0  9998
2 37214  99.0667 343.0045 0017969  92.5734 328.3592 14.15969481524389
SUOMI NPP               
1 37849U 11061A   20358.16994340  .00000020  00000-0  29982-4 0  9990
2 37849  98.7210 293.3519 0001593  84.8425  27.4059 14.19545460474394
FENGYUN 2F              
1 38049U 12002A   20357.57509744 -.00000349  00000-0  00000-0 0  9994
2 38049   2.4987  82.9632 0003323  10.2363 317.7460  1.00267952 32805
METEOSAT-10 (MSG-3)     
1 38552U 12035B   20357.26741569  .00000069  00000-0  00000-0 0  9996
2 38552   1.2536 354.0067 0001208 212.4868 350.3465  1.00277147 30771
METOP-B                 
1 38771U 12049A   20358.20073418  .00000007  00000-0  23015-4 0  9997
2 38771  98.7061  54.7741 0001966 141.8689 285.6686 14.21480717428837
FENGYUN 3C              
1 39260U 13052A   20358.10060961 -.00000007  00000-0  17333-4 0  9991
2 39260  98.5257  40.6616 0011809  38.7020 321.5014 14.15854013375317
METEOR-M 2              
1 40069U 14037A   20358.08180218 -.00000050  00000-0 -38136-5 0  9993
2 40069  98.4817  28.2817 0006867  93.9914 266.2056 14.20678825334996
HIMAWARI-8              
1 40267U 14060A   20357.43717715 -.00000267  00000-0  00000-0 0  9998
2 40267   0.0502 165.9431 0001269 107.3886 116.1526  1.00272429 22674
FENGYUN 2G              
1 40367U 14090A   20356.76160542 -.00000298  00000-0  00000-0 0  9991
2 40367   2.5264  91.8992 0002389 279.9284  93.0249  1.00272659 21958
METEOSAT-11 (MSG-4)     
1 40732U 15034A   20357.44007887  .00000009  00000-0  00000-0 0  9993
2 40732   0.3948 263.7414 0001315 280.5565  65.7435  1.00278956 19952
ELEKTRO-L 2             
1 41105U 15074A   20357.40620834 -.00000107  00000-0  00000-0 0  9991
2 41105   1.6507  94.7342 0002378 133.8644 354.5589  1.00270649 18434
HIMAWARI-9              
1 41836U 16064A   20357.43717715 -.00000266  00000-0  00000-0 0  9996
2 41836   0.0130 314.4423 0000998  20.9079  54.2493  1.00271151 15104
GOES 16                 
1 41866U 16071A   20358.18230671 -.00000237  00000-0  00000+0 0  9998
2 41866   0.0437 186.7066 0001460 112.7293 143.1824  1.00269730 15031
FENGYUN 4A              
1 41882U 16077A   20357.89994137 -.00000320  00000-0  00000+0 0  9996
2 41882   0.0305 313.5083 0005119 104.5076 102.4429  1.00276821 14908
CYGFM05                 
1 41884U 16078A   20357.33274487  .00000774  00000-0  42335-4 0  9991
2 41884  34.9575 332.7833 0016281 282.4898  77.3992 15.14805232222596
CYGFM04                 
1 41885U 16078B   20357.30505823  .00000798  00000-0  42985-4 0  9997
2 41885  34.9505 325.1298 0014599 293.4465  66.4712 15.15324776222615
CYGFM02                 
1 41886U 16078C   20357.36409048  .00000810  00000-0  43602-4 0  9998
2 41886  34.9597 326.6287 0015371 289.7944  70.1110 15.15322102222682
CYGFM01                 
1 41887U 16078D   20358.11586364  .00000768  00000-0  42261-4 0  9992
2 41887  34.9542 329.3484 0016713 289.6544  70.2364 15.14612218222702
CYGFM08                 
1 41888U 16078E   20357.33073579  .00000771  00000-0  41913-4 0  9992
2 41888  34.9512 329.2163 0015875 290.5866  69.3143 15.15031141222636
CYGFM06                 
1 41889U 16078F   20357.34354589  .00000771  00000-0  41608-4 0  9998
2 41889  34.9592 325.4470 0014331 289.4190  70.4973 15.15317175222635
CYGFM07                 
1 41890U 16078G   20358.17865234  .00000801  00000-0  43162-4 0  9997
2 41890  34.9531 319.2618 0014068 299.8140  60.1172 15.15317450222804
CYGFM03                 
1 41891U 16078H   20357.31827356  .00000769  00000-0  41552-4 0  9990
2 41891  34.9561 324.9142 0013581 291.1083  68.8176 15.15303945222626
FENGYUN 3D              
1 43010U 17072A   20358.09875315 -.00000009  00000-0  16776-4 0  9992
2 43010  98.7711 295.4366 0000350 249.6597 110.4549 14.19756673160963
NOAA 20                 
1 43013U 17073A   20358.11298825  .00000001  00000-0  21257-4 0  9995
2 43013  98.7375 293.2769 0001142 100.0257 260.1048 14.19545746160423
GOES 17                 
1 43226U 18022A   20357.49879125  .00000107  00000-0  00000-0 0  9990
2 43226   0.0517 234.2324 0000432  21.0717 238.5413  1.00273306 10334
FENGYUN 2H              
1 43491U 18050A   20358.20257652 -.00000118  00000-0  00000+0 0  9992
2 43491   0.2170 259.3867 0002579 242.7558 102.3549  1.00273018  9431
METOP-C                 
1 43689U 18087A   20358.15465447  .00000000  00000-0  20179-4 0  9991
2 43689  98.7131  55.0976 0003013 147.7382 212.3980 14.21486028110409
GEO-KOMPSAT-2A          
1 43823U 18100A   20357.43473455 -.00000335  00000-0  00000-0 0  9994
2 43823   0.0433 231.5080 0002189  38.1247 106.5708  1.00270764  7535
IOD-1 GEMS              
1 44385U 98067QK  20357.77037232  .00088484  00000-0  64682-3 0  9993
2 44385  51.6355  99.4268 0004120 319.4827  40.5865 15.72467868 83968
METEOR-M2 2             
1 44387U 19038A   20358.13962505 -.00000041  00000-0  12600-5 0  9996
2 44387  98.6461 314.6750 0002356  60.6451 299.4969 14.23683926 76382
